OBJECT_NAME,OBJECT_ID,EPOCH,MEAN_MOTION,ECCENTRICITY,INCLINATION,RA_OF_ASC_NODE,ARG_OF_PERICENTER,MEAN_ANOMALY,EPHEMERIS_TYPE,CLASSIFICATION_TYPE,NORAD_CAT_ID,ELEMENT_SET_NO,REV_AT_EPOCH,BSTAR,MEAN_MOTION_DOT,MEAN_MOTION_DDOT
ONEWEB-0597,2022-166X,2026-06-17T14:10:14.670048,13.21827182,.0002011,87.9253,243.9073,95.3105,264.8259,0,U,54663,999,17159,.15719498E-3,.78E-6,0
ONEWEB-0600,2022-166Y,2026-06-17T02:49:34.130496,13.21823876,.00018228,87.9253,243.9927,96.5226,263.6115,0,U,54664,999,17150,-.17097474E-3,-.58E-6,0
ONEWEB-0601,2022-166Z,2026-06-16T22:59:27.542688,13.21825563,.00020836,87.9252,244.0406,91.9422,268.1951,0,U,54665,999,17167,.31513299E-4,.26E-6,0
ONEWEB-0602,2022-166AA,2026-06-17T03:36:48.615552,13.21826560,.00017804,87.9252,244.0083,95.4365,264.6972,0,U,54666,999,17154,.18938329E-3,.91E-6,0
ONEWEB-0603,2022-166AB,2026-06-17T03:45:18.060192,13.21826917,.00019914,87.9261,243.9640,96.1875,263.9486,0,U,54667,999,17147,.2078478E-3,.99E-6,0
ONEWEB-0604,2022-166AC,2026-06-17T14:22:20.434368,13.21827251,.00020363,87.9263,243.8916,101.2966,258.8397,0,U,54668,999,17149,-.52305781E-4,-.9E-7,0
ONEWEB-0605,2022-166AD,2026-06-17T14:12:40.649760,13.21824937,.0002513,87.9254,243.9064,89.0563,271.0859,0,U,54669,999,17156,-.65701799E-3,-.258E-5,0
ONEWEB-0606,2022-166AE,2026-06-17T03:50:08.562912,13.21826707,.00020131,87.9253,244.0049,104.1031,256.0327,0,U,54670,999,17156,.25695932E-3,.119E-5,0
ONEWEB-0607,2022-166AF,2026-06-17T03:01:40.836576,13.21824204,.00019512,87.9261,243.9825,94.7098,265.4259,0,U,54671,999,17153,-.35109151E-4,-.1E-7,0
ONEWEB-0608,2022-166AG,2026-06-17T14:05:22.700256,13.21828084,.00022511,87.9265,243.8875,85.9317,274.2074,0,U,54672,999,17160,-.22179067E-4,.4E-7,0
ONEWEB-0610,2022-166AH,2026-06-16T23:04:17.718816,13.21824789,.00020691,87.9254,244.0263,81.5456,278.5912,0,U,54673,999,17142,.64075947E-4,.39E-6,0
ONEWEB-0611,2022-166AJ,2026-06-16T22:54:35.082144,13.21828264,.0002039,87.9254,244.0236,103.1925,256.9437,0,U,54674,999,17141,.22024144E-3,.104E-5,0
ONEWEB-0612,2022-166AK,2026-06-16T17:46:59.343168,13.21825266,.00020437,87.9266,244.0615,94.0426,266.0941,0,U,54675,999,17137,-.87438229E-4,-.23E-6,0
ONEWEB-0615,2022-166AL,2026-06-16T22:44:56.197824,13.21826403,.00018944,87.9257,244.0351,105.7643,254.3700,0,U,54676,999,17141,.71220076E-4,.42E-6,0
ONEWEB-0655,2022-166AM,2026-06-17T14:32:02.817888,13.21826805,.00018162,87.9252,243.9054,94.6791,265.4550,0,U,54677,999,17149,.86923958E-4,.49E-6,0
ONEWEB-0659,2022-166AN,2026-06-16T22:35:14.283456,13.21827658,.00021015,87.9253,244.0375,101.2336,258.9035,0,U,54678,999,17149,.86996266E-4,.49E-6,0
ONEWEB-0685,2022-166AP,2026-06-16T22:35:22.375680,13.21847051,.0002064,87.9250,244.0296,88.6376,271.4994,0,U,54679,999,17138,.44262818E-4,.31E-6,0
ONEWEB-0712,2022-166AQ,2026-06-17T14:12:28.730016,13.16594179,.00015894,87.9097,228.6944,93.1714,266.9598,0,U,54680,999,17211,.10309022E-3,.52E-6,0
ONEWEB-0714,2022-166AR,2026-06-16T22:42:29.577888,13.21823849,.00017397,87.9255,244.0261,99.5983,260.5348,0,U,54681,999,17150,-.56760112E-4,-.1E-6,0
ONEWEB-0532,2023-004A,2026-06-17T11:43:17.165568,13.17821467,.00022159,87.9133,5.8045,87.3770,272.7615,0,U,55140,999,16762,-.11843176E-3,-.33E-6,0
ONEWEB-0533,2023-004B,2026-06-17T12:48:26.316288,13.12443866,.00018101,87.8945,350.6014,84.8263,275.3072,0,U,55141,999,16810,-.11444422E-2,-.399E-5,0
ONEWEB-0541,2023-004C,2026-06-17T11:41:58.302240,13.11420402,.00018926,87.8895,20.9983,90.3973,269.7371,0,U,55142,999,16598,.48914616E-3,.186E-5,0
ONEWEB-0543,2023-004D,2026-06-17T11:13:01.470432,13.18685679,.00016165,87.9162,335.4136,92.6931,267.4386,0,U,55143,999,16973,.76418416E-4,.43E-6,0
ONEWEB-0544,2023-004E,2026-06-17T12:52:34.629024,13.18685612,.00017366,87.9162,335.3997,99.0928,261.0401,0,U,55144,999,16974,-.94567391E-4,-.24E-6,0
ONEWEB-0560,2023-004F,2026-06-17T10:53:35.959488,13.18686973,.00016375,87.9162,335.4055,100.0381,260.0936,0,U,55145,999,16974,.35860379E-4,.27E-6,0
ONEWEB-0565,2023-004G,2026-06-17T10:43:53.580288,13.18685468,.0002077,87.9152,335.4348,104.1124,256.0239,0,U,55146,999,16973,-.14514826E-4,.7E-7,0
ONEWEB-0567,2023-004H,2026-06-17T12:23:26.779488,13.18686182,.00019375,87.9160,335.4052,104.3732,255.7616,0,U,55147,999,16974,.51196952E-4,.33E-6,0
ONEWEB-0569,2023-004J,2026-06-17T11:09:52.250112,13.13470593,.00016771,87.8962,320.1641,126.2313,233.8971,0,U,55148,999,17021,-.2499066E-4,.4E-7,0
ONEWEB-0570,2023-004K,2026-06-17T10:22:01.792416,13.18684951,.00022468,87.9159,335.4198,94.3443,265.7946,0,U,55149,999,16972,.10161795E-3,.53E-6,0
ONEWEB-0571,2023-004L,2026-06-17T12:01:34.957056,13.18688529,.00023243,87.9160,335.4054,126.2078,233.9270,0,U,55150,999,16974,-.88821433E-4,-.22E-6,0
