ONEWEB-0597             
1 54663U 22166X   26168.59044757  .00000078  00000+0  15719-3 0  9995
2 54663  87.9253 243.9073 0002011  95.3105 264.8259 13.21827182171599
ONEWEB-0600             
1 54664U 22166Y   26168.11775614 -.00000058  00000+0 -17097-3 0  9998
2 54664  87.9253 243.9927 0001822  96.5226 263.6115 13.21823876171509
ONEWEB-0601             
1 54665U 22166Z   26167.95795767  .00000026  00000+0  31513-4 0  9994
2 54665  87.9252 244.0406 0002083  91.9422 268.1951 13.21825563171671
ONEWEB-0602             
1 54666U 22166AA  26168.15056268  .00000091  00000+0  18938-3 0  9991
2 54666  87.9252 244.0083 0001780  95.4365 264.6972 13.21826560171549
ONEWEB-0603             
1 54667U 22166AB  26168.15645903  .00000099  00000+0  20785-3 0  9993
2 54667  87.9261 243.9640 0001991  96.1875 263.9486 13.21826917171475
ONEWEB-0604             
1 54668U 22166AC  26168.59884762 -.00000009  00000+0 -52306-4 0  9998
2 54668  87.9263 243.8916 0002036 101.2966 258.8397 13.21827251171491
ONEWEB-0605             
1 54669U 22166AD  26168.59213715 -.00000258  00000+0 -65702-3 0  9992
2 54669  87.9254 243.9064 0002513  89.0563 271.0859 13.21824937171569
ONEWEB-0606             
1 54670U 22166AE  26168.15982133  .00000119  00000+0  25696-3 0  9995
2 54670  87.9253 244.0049 0002013 104.1031 256.0327 13.21826707171569
ONEWEB-0607             
1 54671U 22166AF  26168.12616709 -.00000001  00000+0 -35109-4 0  9999
2 54671  87.9261 243.9825 0001951  94.7098 265.4259 13.21824204171531
ONEWEB-0608             
1 54672U 22166AG  26168.58706829  .00000004  00000+0 -22179-4 0  9998
2 54672  87.9265 243.8875 0002251  85.9317 274.2074 13.21828084171601
ONEWEB-0610             
1 54673U 22166AH  26167.96131619  .00000039  00000+0  64076-4 0  9998
2 54673  87.9254 244.0263 0002069  81.5456 278.5912 13.21824789171423
ONEWEB-0611             
1 54674U 22166AJ  26167.95457271  .00000104  00000+0  22024-3 0  9992
2 54674  87.9254 244.0236 0002039 103.1925 256.9437 13.21828264171416
ONEWEB-0612             
1 54675U 22166AK  26167.74096462 -.00000023  00000+0 -87438-4 0  9994
2 54675  87.9266 244.0615 0002043  94.0426 266.0941 13.21825266171376
ONEWEB-0615             
1 54676U 22166AL  26167.94787266  .00000042  00000+0  71220-4 0  9997
2 54676  87.9257 244.0351 0001894 105.7643 254.3700 13.21826403171410
ONEWEB-0655             
1 54677U 22166AM  26168.60558817  .00000049  00000+0  86924-4 0  9994
2 54677  87.9252 243.9054 0001816  94.6791 265.4550 13.21826805171498
ONEWEB-0659             
1 54678U 22166AN  26167.94113754  .00000049  00000+0  86996-4 0  9997
2 54678  87.9253 244.0375 0002101 101.2336 258.9035 13.21827658171498
ONEWEB-0685             
1 54679U 22166AP  26167.94123120  .00000031  00000+0  44263-4 0  9998
2 54679  87.9250 244.0296 0002064  88.6376 271.4994 13.21847051171389
ONEWEB-0712             
1 54680U 22166AQ  26168.59199919  .00000052  00000+0  10309-3 0  9997
2 54680  87.9097 228.6944 0001589  93.1714 266.9598 13.16594179172111
ONEWEB-0714             
1 54681U 22166AR  26167.94617567 -.00000010  00000+0 -56760-4 0  9998
2 54681  87.9255 244.0261 0001739  99.5983 260.5348 13.21823849171507
ONEWEB-0532             
1 55140U 23004A   26168.48839312 -.00000033  00000+0 -11843-3 0  9992
2 55140  87.9133   5.8045 0002215  87.3770 272.7615 13.17821467167624
ONEWEB-0533             
1 55141U 23004B   26168.53363792 -.00000399  00000+0 -11444-2 0  9994
2 55141  87.8945 350.6014 0001810  84.8263 275.3072 13.12443866168109
ONEWEB-0541             
1 55142U 23004C   26168.48748035  .00000186  00000+0  48915-3 0  9992
2 55142  87.8895  20.9983 0001892  90.3973 269.7371 13.11420402165988
ONEWEB-0543             
1 55143U 23004D   26168.46737813  .00000043  00000+0  76418-4 0  9995
2 55143  87.9162 335.4136 0001616  92.6931 267.4386 13.18685679169738
ONEWEB-0544             
1 55144U 23004E   26168.53651191 -.00000024  00000+0 -94567-4 0  9994
2 55144  87.9162 335.3997 0001736  99.0928 261.0401 13.18685612169749
ONEWEB-0560             
1 55145U 23004F   26168.45388842  .00000027  00000+0  35860-4 0  9998
2 55145  87.9162 335.4055 0001637 100.0381 260.0936 13.18686973169745
ONEWEB-0565             
1 55146U 23004G   26168.44714792  .00000007  00000+0 -14515-4 0  9998
2 55146  87.9152 335.4348 0002077 104.1124 256.0239 13.18685468169737
ONEWEB-0567             
1 55147U 23004H   26168.51628217  .00000033  00000+0  51197-4 0  9998
2 55147  87.9160 335.4052 0001937 104.3732 255.7616 13.18686182169740
ONEWEB-0569             
1 55148U 23004J   26168.46518808  .00000004  00000+0 -24991-4 0  9998
2 55148  87.8962 320.1641 0001677 126.2313 233.8971 13.13470593170211
ONEWEB-0570             
1 55149U 23004K   26168.43196519  .00000053  00000+0  10162-3 0  9994
2 55149  87.9159 335.4198 0002246  94.3443 265.7946 13.18684951169729
ONEWEB-0571             
1 55150U 23004L   26168.50109904 -.00000022  00000+0 -88821-4 0  9992
2 55150  87.9160 335.4054 0002324 126.2078 233.9270 13.18688529169744
